{
    "links": {
        "self": "http://www.neowsapp.com/rest/v1/neo/54016210?api_key=iIulBulltgU6a56xZRHN4H3l9WmuAYTsLGpBGhQ2"
    },
    "id": "54016210",
    "neo_reference_id": "54016210",
    "name": "(2020 FS)",
    "designation": "2020 FS",
    "nasa_jpl_url": "http://ssd.jpl.nasa.gov/sbdb.cgi?sstr=54016210",
    "absolute_magnitude_h": 27.766,
    "estimated_diameter": {
        "kilometers": {
            "estimated_diameter_min": 0.007436267,
            "estimated_diameter_max": 0.0166279986
        },
        "meters": {
            "estimated_diameter_min": 7.4362670314,
            "estimated_diameter_max": 16.6279985811
        },
        "miles": {
            "estimated_diameter_min": 0.0046206807,
            "estimated_diameter_max": 0.0103321561
        },
        "feet": {
            "estimated_diameter_min": 24.3972023274,
            "estimated_diameter_max": 54.5538028648
        }
    },
    "is_potentially_hazardous_asteroid": false,
    "close_approach_data": [
        {
            "close_approach_date": "1994-05-18",
            "close_approach_date_full": "1994-May-18 15:18",
            "epoch_date_close_approach": 769274280000,
            "relative_velocity": {
                "kilometers_per_second": "14.7919682165",
                "kilometers_per_hour": "53251.0855794688",
                "miles_per_hour": "33088.1537035316"
            },
            "miss_distance": {
                "astronomical": "0.3460399197",
                "lunar": "134.6095287633",
                "kilometers": "51766834.922091039",
                "miles": "32166419.6438887782"
            },
            "orbiting_body": "Earth"
        },
        {
            "close_approach_date": "2020-03-21",
            "close_approach_date_full": "2020-Mar-21 16:29",
            "epoch_date_close_approach": 1584808140000,
            "relative_velocity": {
                "kilometers_per_second": "4.2914973763",
                "kilometers_per_hour": "15449.3905547266",
                "miles_per_hour": "9599.6504810744"
            },
            "miss_distance": {
                "astronomical": "0.0209593918",
                "lunar": "8.1532034102",
                "kilometers": "3135480.369775466",
                "miles": "1948297.1580387908"
            },
            "orbiting_body": "Earth"
        },
        {
            "close_approach_date": "2031-08-25",
            "close_approach_date_full": "2031-Aug-25 10:06",
            "epoch_date_close_approach": 1945418760000,
            "relative_velocity": {
                "kilometers_per_second": "10.7763800254",
                "kilometers_per_hour": "38794.9680912899",
                "miles_per_hour": "24105.684478724"
            },
            "miss_distance": {
                "astronomical": "0.041070431",
                "lunar": "15.976397659",
                "kilometers": "6144048.99758197",
                "miles": "3817735.016372386"
            },
            "orbiting_body": "Mars"
        }
    ],
    "orbital_data": {
        "orbit_id": "1",
        "orbit_determination_date": "2020-03-17 16:12:22",
        "first_observation_date": "2020-03-16",
        "last_observation_date": "2020-03-17",
        "data_arc_in_days": 1,
        "observations_used": 25,
        "orbit_uncertainty": "7",
        "minimum_orbit_intersection": ".0196548",
        "jupiter_tisserand_invariant": "4.469",
        "epoch_osculation": "2459000.5",
        "eccentricity": ".3262190168391559",
        "semi_major_axis": "1.507501258849279",
        "inclination": ".9199020168824686",
        "ascending_node_longitude": "336.3116917175248",
        "orbital_period": "676.0595501190966",
        "perihelion_distance": "1.015725680303677",
        "perihelion_argument": "207.6427065398636",
        "aphelion_distance": "1.99927683739488",
        "perihelion_time": "2458932.425833490818",
        "mean_anomaly": "36.24932143771692",
        "mean_motion": ".532497469988526",
        "equinox": "J2000",
        "orbit_class": {
            "orbit_class_type": "APO",
            "orbit_class_description": "Near-Earth asteroid orbits which cross the Earth’s orbit similar to that of 1862 Apollo",
            "orbit_class_range": "a (semi-major axis) > 1.0 AU; q (perihelion) < 1.017 AU"
        }
    },
    "is_sentry_object": false
}